OBJECT_NAME,OBJECT_ID,EPOCH,MEAN_MOTION,ECCENTRICITY,INCLINATION,RA_OF_ASC_NODE,ARG_OF_PERICENTER,MEAN_ANOMALY,EPHEMERIS_TYPE,CLASSIFICATION_TYPE,NORAD_CAT_ID,ELEMENT_SET_NO,REV_AT_EPOCH,BSTAR,MEAN_MOTION_DOT,MEAN_MOTION_DDOT
HXMT (HUIYAN),2017-034A,2026-06-26T17:42:29.663712,15.18536611,.0032064,43.0132,129.8563,207.8785,152.0346,0,U,42758,999,49911,.21704E-3,.4381E-4,0
SAOCOM 1A,2018-076A,2026-06-26T18:57:41.647968,14.82153610,.0001542,97.8886,4.3991,79.1749,280.9638,0,U,43641,999,41752,.12765E-4,.49E-6,0
H-2A R/B,2018-084L,2026-06-26T15:31:24.477312,15.45508694,.0022397,98.8571,58.6058,8.1824,351.9781,0,U,43682,999,42258,.42231E-3,.2036E-3,0
SAOCOM 1B,2020-059A,2026-06-26T22:57:00.705888,14.82145864,.000156,97.8887,3.6579,89.7654,270.3738,0,U,46265,999,31493,.55312E-4,.388E-5,0
CSS (TIANHE),2021-035A,2026-06-26T15:18:19.019232,15.61217048,.000798,41.4690,264.4733,157.4644,202.6547,0,U,48274,999,29464,.23874E-3,.20548E-3,0
COSMOS 2550,2021-056A,2026-06-26T17:45:35.212896,15.33857454,.000842,67.1438,71.0094,268.0764,91.9427,0,U,48865,999,28018,.16544E-3,.526E-4,0
CZ-2C R/B,2022-058K,2026-06-26T00:07:58.430496,15.62450808,.00318971,50.1846,117.6128,304.0762,55.7186,0,U,52794,999,22702,.43629874E-3,.40257E-3,0
CZ-2C R/B,2022-132E,2026-06-26T00:00:57.952800,15.72565857,.00142938,97.2898,184.4233,56.3391,303.9234,0,U,54039,999,20733,.52172772E-3,.70428E-3,0
GSLV R/B,2022-138AN,2026-06-26T14:35:39.602400,14.97297422,.0023981,87.3808,129.8203,112.3910,247.9866,0,U,54149,999,20022,.27257E-3,.3206E-4,0
XRISM,2023-137A,2026-06-26T15:03:53.851104,15.12542851,.0007828,31.0027,298.4476,58.7511,301.3894,0,U,57800,999,15429,.26042E-3,.4753E-4,0
ACS3,2024-077B,2026-06-26T12:48:59.385024,13.94542288,.0095187,97.1683,94.2429,57.1858,303.8432,0,U,59588,999,10934,.36073E-2,.4974E-4,0
CZ-8A R/B,2025-231K,2026-06-26T18:20:56.181696,14.30157298,.0116491,50.0056,358.5698,257.7127,101.0725,0,U,66004,999,3631,.51914E-4,-.18E-6,0
SZ-21 MODULE,2025-246C,2026-06-26T14:09:05.760000,15.77194503,.0005018,41.4719,248.7328,65.4550,294.6818,0,U,66515,999,3522,.26051E-3,.43902E-3,0
